TRANSPORTER-10 OBJECT AD
1 59125U 24043AD  26068.86032889  .00011954  00000+0  36311-3 0  9997
2 59125  97.5470 207.3753 0008984 221.4908 138.5653 15.34189901112026
STARLINK-32360          
1 61007U 24158T   26068.37780534 -.00003624  00000+0 -11030-3 0  9997
2 61007  53.1605  51.6751 0001040  81.4572 278.6547 15.30200889 85742
